start=new Date('2022-07-21T00:00:00.000Z').valueOf();
sats=[{"EPHEMERIS_TYPE":"0","NORAD_CAT_ID":"45762","MEAN_ANOMALY":"285.2010","ELEMENT_SET_NO":"999","MEAN_ELEMENT_THEORY":"SGP4","FILE":"3518363","OBJECT_NAME":"STARLINK-1499","RA_OF_ASC_NODE":"56.5412","APOAPSIS":"542.827","GP_ID":"208531935","TLE_LINE2":"2 45762  53.0555  56.5412 0002153  74.9218 285.2010 15.08319382116369","CENTER_NAME":"EARTH","DECAY_DATE":null,"MEAN_MOTION":"15.08319382","REF_FRAME":"TEME","TIME_SYSTEM":"UTC","MEAN_MOTION_DDOT":"0.0000000000000","RCS_SIZE":"LARGE","PERIAPSIS":"539.847","OBJECT_TYPE":"PAYLOAD","BSTAR":"0.00021680000000","MEAN_MOTION_DOT":"0.00003117","ARG_OF_PERICENTER":"74.9218","SEMIMAJOR_AXIS":"6919.472","LAUNCH_DATE":"2020-06-13","INCLINATION":"53.0555","COUNTRY_CODE":"US","REV_AT_EPOCH":"11636","CLASSIFICATION_TYPE":"U","SITE":"AFETR","TLE_LINE1":"1 45762U 20038AJ  22201.87736650  .00003117  00000-0  21680-3 0  9998","OBJECT_ID":"2020-038AJ","EPOCH":"2022-07-20T21:03:24.465600","PERIOD":"95.470","ECCENTRICITY":"0.00021530"},{"CENTER_NAME":"EARTH","TLE_LINE2":"2 45763  53.0364 228.8254 0006188  68.8517 291.3172 15.96220675119882","GP_ID":"208512607","MEAN_MOTION_DDOT":"0.0009752800000","TIME_SYSTEM":"UTC","REF_FRAME":"TEME","DECAY_DATE":null,"MEAN_MOTION":"15.96220675","FILE":"3518350","MEAN_ELEMENT_THEORY":"SGP4","ELEMENT_SET_NO":"999","MEAN_ANOMALY":"291.3172","NORAD_CAT_ID":"45763","EPHEMERIS_TYPE":"0","APOAPSIS":"289.040","RA_OF_ASC_NODE":"228.8254","OBJECT_NAME":"STARLINK-1501","COUNTRY_CODE":"US","INCLINATION":"53.0364","ECCENTRICITY":"0.00061880","PERIOD":"90.213","OBJECT_ID":"2020-038AK","EPOCH":"2022-07-20T21:04:51.483360","TLE_LINE1":"1 45763U 20038AK  22201.87837365  .01378727  97528-3  32841-2 0  9991","CLASSIFICATION_TYPE":"U","SITE":"AFETR","REV_AT_EPOCH":"11988","ARG_OF_PERICENTER":"68.8517","OBJECT_TYPE":"PAYLOAD","MEAN_MOTION_DOT":"0.01378727","PERIAPSIS":"280.794","BSTAR":"0.00328410000000","RCS_SIZE":"LARGE","LAUNCH_DATE":"2020-06-13","SEMIMAJOR_AXIS":"6663.052"},{"RCS_SIZE":"LARGE","OBJECT_TYPE":"PAYLOAD","PERIAPSIS":"546.198","BSTAR":"0.00011099000000","MEAN_MOTION_DOT":"0.00001373","ARG_OF_PERICENTER":"78.3523","SEMIMAJOR_AXIS":"6925.319","LAUNCH_DATE":"2020-06-13","INCLINATION":"53.0552","COUNTRY_CODE":"US","REV_AT_EPOCH":"11634","SITE":"AFETR","CLASSIFICATION_TYPE":"U","TLE_LINE1":"1 45764U 20038AL  22201.82042297  .00001373  00000-0  11099-3 0  9997","OBJECT_ID":"2020-038AL","EPOCH":"2022-07-20T19:41:24.544608","PERIOD":"95.592","ECCENTRICITY":"0.00014240","EPHEMERIS_TYPE":"0","NORAD_CAT_ID":"45764","ELEMENT_SET_NO":"999","MEAN_ANOMALY":"281.7626","MEAN_ELEMENT_THEORY":"SGP4","FILE":"3518363","OBJECT_NAME":"STARLINK-1502","RA_OF_ASC_NODE":"57.6624","APOAPSIS":"548.170","GP_ID":"208532936","CENTER_NAME":"EARTH","TLE_LINE2":"2 45764  53.0552  57.6624 0001424  78.3523 281.7626 15.06409683116346","DECAY_DATE":null,"MEAN_MOTION":"15.06409683","TIME_SYSTEM":"UTC","REF_FRAME":"TEME","MEAN_MOTION_DDOT":"0.0000000000000"},{"APOAPSIS":"548.164","OBJECT_NAME":"STARLINK-1509","RA_OF_ASC_NODE":"57.4020","MEAN_ELEMENT_THEORY":"SGP4","MEAN_ANOMALY":"295.0403","ELEMENT_SET_NO":"999","FILE":"3518363","EPHEMERIS_TYPE":"0","NORAD_CAT_ID":"45766","MEAN_MOTION":"15.06398828","DECAY_DATE":null,"MEAN_MOTION_DDOT":"0.0000000000000","TIME_SYSTEM":"UTC","REF_FRAME":"TEME","GP_ID":"208531685","TLE_LINE2":"2 45766  53.0547  57.4020 0001367  65.0728 295.0403 15.06398828116334","CENTER_NAME":"EARTH","LAUNCH_DATE":"2020-06-13","SEMIMAJOR_AXIS":"6925.352","BSTAR":"0.00010557000000","OBJECT_TYPE":"PAYLOAD","PERIAPSIS":"546.270","MEAN_MOTION_DOT":"0.00001291","ARG_OF_PERICENTER":"65.0728","RCS_SIZE":"LARGE","OBJECT_ID":"2020-038AN","EPOCH":"2022-07-20T21:01:01.928928","PERIOD":"95.592","ECCENTRICITY":"0.00013670","REV_AT_EPOCH":"11633","TLE_LINE1":"1 45766U 20038AN  22201.87571677  .00001291  00000-0  10557-3 0  9990","SITE":"AFETR","CLASSIFICATION_TYPE":"U","INCLINATION":"53.0547","COUNTRY_CODE":"US"},{"INCLINATION":"53.0551","COUNTRY_CODE":"US","REV_AT_EPOCH":"11633","TLE_LINE1":"1 45767U 20038AP  22201.86835031  .00006893  00000-0  48105-3 0  9990","CLASSIFICATION_TYPE":"U","SITE":"AFETR","OBJECT_ID":"2020-038AP","EPOCH":"2022-07-20T20:50:25.466784","PERIOD":"95.592","ECCENTRICITY":"0.00014690","RCS_SIZE":"LARGE","PERIAPSIS":"546.170","OBJECT_TYPE":"PAYLOAD","MEAN_MOTION_DOT":"0.00006893","BSTAR":"0.00048105000000","ARG_OF_PERICENTER":"71.7976","LAUNCH_DATE":"2020-06-13","SEMIMAJOR_AXIS":"6925.322","GP_ID":"208531435","TLE_LINE2":"2 45767  53.0551  57.4534 0001469  71.7976 288.3173 15.06408696116336","CENTER_NAME":"EARTH","DECAY_DATE":null,"MEAN_MOTION":"15.06408696","MEAN_MOTION_DDOT":"0.0000000000000","TIME_SYSTEM":"UTC","REF_FRAME":"TEME","EPHEMERIS_TYPE":"0","NORAD_CAT_ID":"45767","MEAN_ELEMENT_THEORY":"SGP4","MEAN_ANOMALY":"288.3173","ELEMENT_SET_NO":"999","FILE":"3518363","OBJECT_NAME":"STARLINK-1511","RA_OF_ASC_NODE":"57.4534","APOAPSIS":"548.204"},{"COUNTRY_CODE":"US","INCLINATION":"53.0540","PERIOD":"95.592","ECCENTRICITY":"0.00013440","EPOCH":"2022-07-20T20:23:53.060352","OBJECT_ID":"2020-038AQ","SITE":"AFETR","CLASSIFICATION_TYPE":"U","TLE_LINE1":"1 45768U 20038AQ  22201.84991968  .00002281  00000-0  17198-3 0  9996","REV_AT_EPOCH":"11634","ARG_OF_PERICENTER":"78.7175","PERIAPSIS":"546.272","OBJECT_TYPE":"PAYLOAD","BSTAR":"0.00017198000000","MEAN_MOTION_DOT":"0.00002281","RCS_SIZE":"LARGE","SEMIMAJOR_AXIS":"6925.337","LAUNCH_DATE":"2020-06-13","TLE_LINE2":"2 45768  53.0540  57.5192 0001344  78.7175 281.3965 15.06403652116346","CENTER_NAME":"EARTH","GP_ID":"208532686","REF_FRAME":"TEME","TIME_SYSTEM":"UTC","MEAN_MOTION_DDOT":"0.0000000000000","DECAY_DATE":null,"MEAN_MOTION":"15.06403652","FILE":"3518363","MEAN_ANOMALY":"281.3965","ELEMENT_SET_NO":"999","MEAN_ELEMENT_THEORY":"SGP4","NORAD_CAT_ID":"45768","EPHEMERIS_TYPE":"0","APOAPSIS":"548.133","RA_OF_ASC_NODE":"57.5192","OBJECT_NAME":"STARLINK-1521"},{"EPHEMERIS_TYPE":"0","NORAD_CAT_ID":"45769","MEAN_ELEMENT_THEORY":"SGP4","ELEMENT_SET_NO":"999","MEAN_ANOMALY":"286.1912","FILE":"3518363","OBJECT_NAME":"STARLINK-1459","RA_OF_ASC_NODE":"77.4297","APOAPSIS":"548.184","GP_ID":"208532436","TLE_LINE2":"2 45769  53.0530  77.4297 0001424  73.9233 286.1912 15.06404986116069","CENTER_NAME":"EARTH","MEAN_MOTION":"15.06404986","DECAY_DATE":null,"MEAN_MOTION_DDOT":"0.0000000000000","TIME_SYSTEM":"UTC","REF_FRAME":"TEME","RCS_SIZE":"LARGE","OBJECT_TYPE":"PAYLOAD","PERIAPSIS":"546.212","MEAN_MOTION_DOT":"0.00001850","BSTAR":"0.00014307000000","ARG_OF_PERICENTER":"73.9233","LAUNCH_DATE":"2020-06-13","SEMIMAJOR_AXIS":"6925.333","INCLINATION":"53.0530","COUNTRY_CODE":"US","REV_AT_EPOCH":"11606","TLE_LINE1":"1 45769U 20038AR  22201.87388007  .00001850  00000-0  14307-3 0  9994","SITE":"AFETR","CLASSIFICATION_TYPE":"U","EPOCH":"2022-07-20T20:58:23.238048","OBJECT_ID":"2020-038AR","PERIOD":"95.592","ECCENTRICITY":"0.00014240"},{"SEMIMAJOR_AXIS":"6925.339","LAUNCH_DATE":"2020-06-13","RCS_SIZE":"LARGE","OBJECT_TYPE":"PAYLOAD","PERIAPSIS":"546.250","MEAN_MOTION_DOT":"0.00001990","BSTAR":"0.00015241000000","ARG_OF_PERICENTER":"68.2771","REV_AT_EPOCH":"11660","SITE":"AFETR","CLASSIFICATION_TYPE":"U","TLE_LINE1":"1 45770U 20038AS  22201.81026940  .00001990  00000-0  15241-3 0  9998","EPOCH":"2022-07-20T19:26:47.276160","OBJECT_ID":"2020-038AS","PERIOD":"95.592","ECCENTRICITY":"0.00013770","INCLINATION":"53.0572","COUNTRY_CODE":"US","OBJECT_NAME":"STARLINK-1462","RA_OF_ASC_NODE":"37.7018","APOAPSIS":"548.158","EPHEMERIS_TYPE":"0","NORAD_CAT_ID":"45770","ELEMENT_SET_NO":"999","MEAN_ANOMALY":"291.8364","MEAN_ELEMENT_THEORY":"SGP4","FILE":"3518363","DECAY_DATE":null,"MEAN_MOTION":"15.06403102","TIME_SYSTEM":"UTC","REF_FRAME":"TEME","MEAN_MOTION_DDOT":"0.0000000000000","GP_ID":"208531185","CENTER_NAME":"EARTH","TLE_LINE2":"2 45770  53.0572  37.7018 0001377  68.2771 291.8364 15.06403102116601"},{"OBJECT_NAME":"STARLINK-1463","RA_OF_ASC_NODE":"37.4471","APOAPSIS":"548.253","EPHEMERIS_TYPE":"0","NORAD_CAT_ID":"45771","ELEMENT_SET_NO":"999","MEAN_ANOMALY":"280.9166","MEAN_ELEMENT_THEORY":"SGP4","FILE":"3518363","MEAN_MOTION":"15.06396963","DECAY_DATE":null,"REF_FRAME":"TEME","TIME_SYSTEM":"UTC","MEAN_MOTION_DDOT":"0.0000000000000","GP_ID":"208531936","TLE_LINE2":"2 45771  53.0549  37.4471 0001487  79.1991 280.9166 15.06396963116619","CENTER_NAME":"EARTH","SEMIMAJOR_AXIS":"6925.358","LAUNCH_DATE":"2020-06-13","RCS_SIZE":"LARGE","PERIAPSIS":"546.193","OBJECT_TYPE":"PAYLOAD","BSTAR":"0.00009073900000","MEAN_MOTION_DOT":"0.00001070","ARG_OF_PERICENTER":"79.1991","REV_AT_EPOCH":"11661","SITE":"AFETR","CLASSIFICATION_TYPE":"U","TLE_LINE1":"1 45771U 20038AT  22201.87019319  .00001070  00000-0  90739-4 0  9992","EPOCH":"2022-07-20T20:53:04.691616","OBJECT_ID":"2020-038AT","ECCENTRICITY":"0.00014870","PERIOD":"95.592","INCLINATION":"53.0549","COUNTRY_CODE":"US"},{"RCS_SIZE":"LARGE","OBJECT_TYPE":"PAYLOAD","PERIAPSIS":"546.347","MEAN_MOTION_DOT":"0.00001350","BSTAR":"0.00010945000000","ARG_OF_PERICENTER":"94.2666","LAUNCH_DATE":"2020-06-13","SEMIMAJOR_AXIS":"6925.328","INCLINATION":"53.0569","COUNTRY_CODE":"US","REV_AT_EPOCH":"11662","TLE_LINE1":"1 45772U 20038AU  22201.85912771  .00001350  00000-0  10945-3 0  9996","SITE":"AFETR","CLASSIFICATION_TYPE":"U","OBJECT_ID":"2020-038AU","EPOCH":"2022-07-20T20:37:08.634144","PERIOD":"95.592","ECCENTRICITY":"0.00012220","EPHEMERIS_TYPE":"0","NORAD_CAT_ID":"45772","MEAN_ELEMENT_THEORY":"SGP4","ELEMENT_SET_NO":"999","MEAN_ANOMALY":"265.8463","FILE":"3518363","OBJECT_NAME":"STARLINK-1470","RA_OF_ASC_NODE":"37.4740","APOAPSIS":"548.039","GP_ID":"208532186","TLE_LINE2":"2 45772  53.0569  37.4740 0001222  94.2666 265.8463 15.06406742116625","CENTER_NAME":"EARTH","MEAN_MOTION":"15.06406742","DECAY_DATE":null,"MEAN_MOTION_DDOT":"0.0000000000000","REF_FRAME":"TEME","TIME_SYSTEM":"UTC"}];
